ANIK F1                 
1 26624U 00076A   17303.19060665 -.00000076  00000-0  00000+0 0  9993
2 26624   0.0125 210.7035 0002752 313.3752 195.9671  1.00271711 62127
ASTRA 2D                
1 26638U 00081A   17302.92023952  .00000049  00000-0  00000-0 0  9992
2 26638   3.9078  69.3943 0001890 146.7611 213.2672  1.00270584 21308
AMC-8 (GE-8)            
1 26639U 00081B   17303.63313222  .00000103  00000-0  00000+0 0  9994
2 26639   0.0229  14.7259 0002618 218.2099 255.1464  1.00267538 61676
SKYNET 4F               
1 26695U 01005B   17304.15012841 -.00000244  00000-0  00000+0 0  9991
2 26695   9.0488  35.6674 0003198 175.4572 208.5686  1.00270118 61284
EUTELSAT 33C            
1 26719U 01011A   17303.63486722  .00000155  00000-0  00000+0 0  9990
2 26719   0.0731  30.9312 0004004 209.2923  60.6025  1.00275388 60976
INTELSAT 10 (IS-10)     
1 26766U 01019A   17303.59792784  .00000126  00000-0  00000-0 0  9992
2 26766   1.7964  84.4840 0002806 152.0095  65.3845  1.00270477 14039
INTELSAT 901 (IS-901)   
1 26824U 01024A   17303.68868730 -.00000142  00000-0  00000+0 0  9996
2 26824   0.0123 269.1893 0002832 307.1634  52.7869  1.00271648 59995
ASTRA 2C                
1 26853U 01025A   17304.43729693  .00000047  00000-0  00000+0 0  9990
2 26853   0.6835  91.1367 0003736 125.1566  41.3849  1.00270988 59985
ARTEMIS                 
1 26863U 01029A   17303.70173380 -.00000363  00000-0  00000+0 0  9992
2 26863  12.8663  31.6760 0002931 230.1028 152.9681  1.00265671 60801
INTELSAT 902 (IS-902)   
1 26900U 01039A   17304.13452153  .00000032  00000-0  00000+0 0  9993
2 26900   0.0103 273.9512 0002873 308.0186 288.0973  1.00272477 59177
EUTELSAT 12 WEST B      
1 26927U 01042A   17304.26202563 -.00000100  00000-0  00000+0 0  9995
2 26927   0.0634  17.9579 0005528 218.5404 245.1406  1.00271633 58933
DIRECTV 4S              
1 26985U 01052A   17304.46573868 -.00000114  00000-0  00000+0 0  9996
2 26985   0.0136 258.9349 0002887 320.9859 246.5433  1.00272023 58404
ECHOSTAR 7              
1 27378U 02006A   17304.36066990 -.00000001  00000-0  00000+0 0  9990
2 27378   0.0091  95.1999 0001774  99.5988 216.0936  1.00268678 57476
INTELSAT 904 (IS-904)   
1 27380U 02007A   17303.63109549  .00000135  00000-0  00000-0 0  9999
2 27380   0.0307 122.3679 0002794  90.2839  98.8078  1.00271650 20166
TDRS 9                  
1 27389U 02011A   17304.18660684 -.00000095  00000-0  00000+0 0  9991
2 27389   5.5246  77.4005 0019517 233.4258 144.1016  1.00271773 58846
JCSAT 2A                
1 27399U 02015A   17304.50349556 -.00000249  00000-0  00000+0 0  9995
2 27399   0.7636  91.7029 0004122 160.0445  65.8815  1.00110805 57024
ASTRA 3A                
1 27400U 02015B   17303.21214585 -.00000279  00000-0  00000+0 0  9991
2 27400   4.0676  68.1063 0002524 148.0919 211.9326  1.00274640 57119
INTELSAT 903 (IS-903)   
1 27403U 02016A   17303.69351469 -.00000225  00000-0  00000+0 0  9991
2 27403   0.1259  94.0286 0001641  79.2574  84.1029  1.00270781 57046
NSS-7                   
1 27414U 02019A   17304.17436956 -.00000154  00000-0  00000+0 0  9996
2 27414   2.1737  82.2861 0002365 146.2505 213.9310  1.00271339 56967
DIRECTV 5 (TEMPO 1)     
1 27426U 02023A   17303.19832016 -.00000057  00000-0  00000+0 0  9994
2 27426   0.0180 243.3154 0003372 333.2124 143.4491  1.00268903 56700
INTELSAT 905 (IS-905)   
1 27438U 02027A   17304.15535199 -.00000185  00000-0  00000+0 0  9992
2 27438   0.0171 245.3348 0002513 323.4939 222.2812  1.00271841 56361
EXPRESS-A4              
1 27441U 02029A   17304.48868802 -.00000240  00000-0  00000+0 0  9996
2 27441   6.2865  55.6331 0005860 105.5542 200.2996  1.00273538 56379
GALAXY 3C (G-3C)        
1 27445U 02030A   17303.15663106 -.00000153  00000-0  00000+0 0  9998
2 27445   0.0226 286.3245 0001384  42.7641  30.9405  1.00272303 56352
EUTELSAT 5 WEST A       
1 27460U 02035A   17303.90436765 -.00000043  00000-0  00000+0 0  9990
2 27460   0.0490  20.1310 0005462 202.8819 136.9823  1.00271273 56150
N-STAR C                
1 27461U 02035B   17304.50813216 -.00000306  00000-0  00000+0 0  9990
2 27461   4.8815  64.0244 0002212  86.0665 208.8719  1.00271792 56067
EUTELSAT 36 WEST A      
1 27508U 02040A   17302.99366816 -.00000247  00000-0  00000+0 0  9992
2 27508   0.0717  16.9012 0003037 278.5343  64.5702  1.00271403 55645
METEOSAT-8 (MSG-1)      
1 27509U 02040B   17304.59788598  .00000145  00000-0  00000+0 0  9992
2 27509   5.0748  57.7794 0000464 273.4669 325.3798  1.00271711 55657
INTELSAT 906 (IS-906)   
1 27513U 02041A   17304.12966247  .00000014  00000-0  00000+0 0  9991
2 27513   0.0116 243.5492 0003040 331.2023 295.7364  1.00271520 55372
KALPANA-1 (METSAT 1)    
1 27525U 02043A   17303.83798445 -.00000073  00000-0  00000+0 0  9992
2 27525   6.5715  54.3478 0015106 227.2554 132.5818  1.00270812 55445
HISPASAT 1D             
1 27528U 02044A   17303.69351469 -.00000217  00000-0  00000-0 0  9992
2 27528   0.0375  25.2878 0003913 215.2443  18.3415  1.00269810 11214
TDRS 10                 
1 27566U 02055A   17303.53634216  .00000082  00000-0  00000-0 0  9992
2 27566   5.2653  57.7897 0010074 212.7329 147.1742  1.00272378 54634
NSS-6                   
1 27603U 02057A   17303.81412234 -.00000270  00000-0  00000+0 0  9990
2 27603   0.0201 119.2956 0003053 113.2980 194.8015  1.00270716 54495
NIMIQ 2                 
1 27632U 02062A   17303.86649502 -.00000229  00000-0  00000+0 0  9997
2 27632   2.2650  81.2274 0000490 105.1835 254.9717  1.00269542 54280
INTELSAT 907 (IS-907)   
1 27683U 03007A   17303.96673443 -.00000203  00000-0  00000+0 0  9997
2 27683   0.0197 251.9324 0002958 322.1293 145.9574  1.00271354 53799
GALAXY 12 (G-12)        
1 27715U 03013B   17303.57383890  .00000057  00000-0  00000+0 0  9997
2 27715   0.0127 231.3844 0002780 348.2513 257.0437  1.00272990 53402
ASIASAT 4               
1 27718U 03014A   17303.30327200 -.00000361  00000-0  00000-0 0  9995
2 27718   0.0197 159.4106 0000338 294.5775 176.1184  1.00269337 53314
HELLAS-SAT 2            
1 27811U 03020A   17304.18889696  .00000152  00000-0  00000+0 0  9991
2 27811   0.0467 204.9298 0006598  16.9668 284.8270  1.00274379 52748
AMC-9 (GE-12)           
1 27820U 03024A   17304.40685829  .00000095  00000-0  00000+0 0  9998
2 27820   0.2662  89.5807 0010753 248.6289  54.6782  0.99654745 52748
THURAYA-2               
1 27825U 03026A   17303.94765300  .00000132  00000-0  00000-0 0  9999
2 27825   5.0397  29.6291 0004990 176.6789 218.3276  1.00274656 52754
OPTUS C1                
1 27831U 03028B   17303.93660650 -.00000147  00000-0  00000+0 0  9995
2 27831   0.0528 129.8930 0004398  72.2657 330.5025  1.00272173 52720
ECHOSTAR 12 (RAINBOW 1) 
1 27852U 03033A   17304.40621427 -.00000200  00000-0  00000+0 0  9996
2 27852   0.0032 302.3050 0001947 305.9810 211.4898  1.00271684 52381
GALAXY 23 (G-23)        
1 27854U 03034A   17303.58170934  .00000012  00000-0  00000-0 0  9990
2 27854   0.0222 270.4405 0002905 306.7671 270.3206  1.00272182 52147
EUTELSAT 33A            
1 27948U 03043A   17304.05649667  .00000154  00000-0  00000+0 0  9997
2 27948   2.6394  77.7715 0002624 231.9681 141.0525  1.00272891 51738
GALAXY 13 (HORIZONS-1)  
1 27954U 03044A   17303.90257793  .00000047  00000-0  00000+0 0  9994
2 27954   0.0465 103.9230 0001546 163.9257 329.4993  1.00268409 51567
ZHONGXING-20            
1 28082U 03052A   17303.92268108 -.00000323  00000-0  00000-0 0  9999
2 28082   3.7677  70.6204 0003979 186.6279 217.6351  1.00271624 51169
YAMAL 202               
1 28089U 03053A   17304.05691591  .00000118  00000-0  00000+0 0  9998
2 28089   0.0760  83.0683 0002869 155.5733 230.4811  1.00277125 51082
EXPRESS-AM22 (SESAT 2)  
1 28134U 03060A   17304.12480066 -.00000137  00000-0  00000+0 0  9990
2 28134   0.7309  90.7219 0000466 176.3019 257.6615  1.00271703 50671
AMC-10 (GE-10)          
1 28154U 04003A   17304.16240189  .00000087  00000-0  00000+0 0  9997
2 28154   0.0024 304.7765 0001288 243.2400 135.1472  1.00273787 50333
ABS-4 (MOBISAT-1)       
1 28184U 04007A   17303.42688448  .00000040  00000-0  00000+0 0  9995
2 28184   0.0220 277.7460 0001866 298.9442  36.9168  1.00271844 49970
EUTELSAT 7A             
1 28187U 04008A   17303.60257646  .00000047  00000-0  00000+0 0  9998
2 28187   0.0713  26.1539 0005687 187.2042  49.6922  1.00271702 49976
DIRECTV 7S              
1 28238U 04016A   17303.57754348  .00000000  00000-0  00000+0 0  9990
2 28238   0.0271  26.0940 0003134 192.6467 269.2138  1.00270432 49465
AMC-11 (GE-11)          
1 28252U 04017A   17303.72688209  .00000068  00000-0  00000+0 0  9990
2 28252   0.0196  75.3637 0002970 157.6844 296.8521  1.00270462 49100
INTELSAT 10-02          
1 28358U 04022A   17304.17271473 -.00000011  00000-0  00000+0 0  9993
2 28358   0.0140 176.4987 0001182 130.0741 154.3280  1.00271002 49035
APSTAR 5 (TELSTAR 18)   
1 28364U 04024A   17303.67592132 -.00000295  00000-0  00000+0 0  9998
2 28364   0.0188 133.1767 0003224  92.4502 194.9022  1.00271680 48951
ANIK F2                 
1 28378U 04027A   17304.46573868 -.00000050  00000-0  00000+0 0  9998
2 28378   0.0506  76.2023 0001005 114.5395 265.8339  1.00271168 48762
AMC-15                  
1 28446U 04041A   17304.36365480 -.00000089  00000-0  00000+0 0  9990
2 28446   0.0429  53.2772 0002737 185.0234 187.4466  1.00271042 47799
AMC-16                  
1 28472U 04048A   17304.42383152 -.00000206  00000-0  00000+0 0  9990
2 28472   0.0068  46.0420 0003152 183.9273 237.5151  1.00267481 47227
NSS-10 (AMC-12)         
1 28526U 05003A   17303.84282083 -.00000251  00000-0  00000+0 0  9998
2 28526   0.0307  31.5175 0002904 183.0083  90.8237  1.00272632 46715
XTAR-EUR                
1 28542U 05005A   17303.81022288  .00000150  00000-0  00000+0 0  9991
2 28542   0.0455  80.2406 0003098 146.9147 132.8566  1.00272349 46581
